[
    {
        "Altitude(m)": 624792.7383864773,
        "Argument of Periapsis(deg)": 0.0,
        "Eccentricity": 0.0,
        "Inclination(deg)": 60.0,
        "Latitude(deg)": -59.14698544850281,
        "Longitude(deg)": 109.02636032184922,
        "Mean Anomaly(deg)": -98.18179999999994,
        "RAAN(deg)": 315.0,
        "Satellite Name": "Test1 1402",
        "Satellite Number": 1402,
        "Semi-Major Axis(m)": 6980739.136638005,
        "Time(s)": 0
    },
    {
        "Altitude(m)": 624842.1306820157,
        "Argument of Periapsis(deg)": 0.00010418945913296404,
        "Eccentricity": 0.0,
        "Inclination(deg)": 60.0,
        "Latitude(deg)": -59.289069562175136,
        "Longitude(deg)": 110.15586077926578,
        "Mean Anomaly(deg)": -97.56169385453809,
        "RAAN(deg)": 314.99957995086027,
        "Satellite Name": "Test1 1402",
        "Satellite Number": 1402,
        "Semi-Major Axis(m)": 6980739.136638005,
        "Time(s)": 10
    },
    {
        "Altitude(m)": 624887.6987270262,
        "Argument of Periapsis(deg)": 0.0002083789182659281,
        "Eccentricity": 0.0,
        "Inclination(deg)": 60.0,
        "Latitude(deg)": -59.4205428690742,
        "Longitude(deg)": 111.29478176301018,
        "Mean Anomaly(deg)": -96.94158770907633,
        "RAAN(deg)": 314.9991599017205,
        "Satellite Name": "Test1 1402",
        "Satellite Number": 1402,
        "Semi-Major Axis(m)": 6980739.136638005,
        "Time(s)": 20
    },
    {
        "Altitude(m)": 624929.4245580514,
        "Argument of Periapsis(deg)": 0.00031256837739889213,
        "Eccentricity": 0.0,
        "Inclination(deg)": 60.0,
        "Latitude(deg)": -59.541268068287565,
        "Longitude(deg)": 112.44250097505633,
        "Mean Anomaly(deg)": -96.32148156361443,
        "RAAN(deg)": 314.9987398525808,
        "Satellite Name": "Test1 1402",
        "Satellite Number": 1402,
        "Semi-Major Axis(m)": 6980739.136638005,
        "Time(s)": 30
    },
    {
        "Altitude(m)": 624967.2917227987,
        "Argument of Periapsis(deg)": 0.0004167578365318562,
        "Eccentricity": 0.0,
        "Inclination(deg)": 60.0,
        "Latitude(deg)": -59.65111699220176,
        "Longitude(deg)": 113.59836113291848,
        "Mean Anomaly(deg)": -95.70137541815268,
        "RAAN(deg)": 314.99831980344106,
        "Satellite Name": "Test1 1402",
        "Satellite Number": 1402,
        "Semi-Major Axis(m)": 6980739.136638005,
        "Time(s)": 40
    },
    {
        "Altitude(m)": 625001.2852870726,
        "Argument of Periapsis(deg)": 0.0005209472956648203,
        "Eccentricity": 0.0,
        "Inclination(deg)": 60.0,
        "Latitude(deg)": -59.749971245585904,
        "Longitude(deg)": 114.76167080632847,
        "Mean Anomaly(deg)": -95.08126927269083,
        "RAAN(deg)": 314.9978997543013,
        "Satellite Name": "Test1 1402",
        "Satellite Number": 1402,
        "Semi-Major Axis(m)": 6980739.136638005,
        "Time(s)": 50
    },
    {
        "Altitude(m)": 625031.3918410698,
        "Argument of Periapsis(deg)": 0.0006251367547977843,
        "Eccentricity": 0.0,
        "Inclination(deg)": 60.0,
        "Latitude(deg)": -59.83772281160287,
        "Longitude(deg)": 115.93170709147105,
        "Mean Anomaly(deg)": -94.46116312722907,
        "RAAN(deg)": 314.99747970516154,
        "Satellite Name": "Test1 1402",
        "Satellite Number": 1402,
        "Semi-Major Axis(m)": 6980739.136638005,
        "Time(s)": 60
    },
    {
        "Altitude(m)": 625057.5995050394,
        "Argument of Periapsis(deg)": 0.0007293262139307483,
        "Eccentricity": 0.0,
        "Inclination(deg)": 60.0,
        "Latitude(deg)": -59.91427461791225,
        "Longitude(deg)": 117.10771859967942,
        "Mean Anomaly(deg)": -93.84105698176717,
        "RAAN(deg)": 314.9970596560218,
        "Satellite Name": "Test1 1402",
        "Satellite Number": 1402,
        "Semi-Major Axis(m)": 6980739.136638005,
        "Time(s)": 70
    },
    {
        "Altitude(m)": 625079.8979342567,
        "Argument of Periapsis(deg)": 0.0008335156730637124,
        "Eccentricity": 0.0,
        "Inclination(deg)": 60.0,
        "Latitude(deg)": -59.979541056233835,
        "Longitude(deg)": 118.28892723181228,
        "Mean Anomaly(deg)": -93.22095083630542,
        "RAAN(deg)": 314.99663960688207,
        "Satellite Name": "Test1 1402",
        "Satellite Number": 1402,
        "Semi-Major Axis(m)": 6980739.136638005,
        "Time(s)": 80
    },
    {
        "Altitude(m)": 625098.2783234123,
        "Argument of Periapsis(deg)": 0.0009377051321966765,
        "Eccentricity": 0.0,
        "Inclination(deg)": 60.0,
        "Latitude(deg)": -60.033448449096724,
        "Longitude(deg)": 119.47453174265988,
        "Mean Anomaly(deg)": -92.60084469084357,
        "RAAN(deg)": 314.99621955774234,
        "Satellite Name": "Test1 1402",
        "Satellite Number": 1402,
        "Semi-Major Axis(m)": 6980739.136638005,
        "Time(s)": 90
    },
    {
        "Altitude(m)": 625112.7334102992,
        "Argument of Periapsis(deg)": 0.0010418945913296407,
        "Eccentricity": 0.0,
        "Inclination(deg)": 60.0,
        "Latitude(deg)": -60.07593545798116,
        "Longitude(deg)": 120.66371155580494,
        "Mean Anomaly(deg)": -91.98073854538171,
        "RAAN(deg)": 314.99579950860254,
        "Satellite Name": "Test1 1402",
        "Satellite Number": 1402,
        "Semi-Major Axis(m)": 6980739.136638005,
        "Time(s)": 100
    },
    {
        "Altitude(m)": 625123.257478875,
        "Argument of Periapsis(deg)": 0.0011460840504626045,
        "Eccentricity": 0.0,
        "Inclination(deg)": 60.0,
        "Latitude(deg)": -60.106953427669644,
        "Longitude(deg)": 121.85562928444074,
        "Mean Anomaly(deg)": -91.36063239991991,
        "RAAN(deg)": 314.99537945946287,
        "Satellite Name": "Test1 1402",
        "Satellite Number": 1402,
        "Semi-Major Axis(m)": 6980739.136638005,
        "Time(s)": 110
    },
    {
        "Altitude(m)": 625129.8463616724,
        "Argument of Periapsis(deg)": 0.0012502735095955685,
        "Eccentricity": 0.0,
        "Inclination(deg)": 60.0,
        "Latitude(deg)": -60.126466662353444,
        "Longitude(deg)": 123.04943494781492,
        "Mean Anomaly(deg)": -90.74052625445806,
        "RAAN(deg)": 314.99495941032313,
        "Satellite Name": "Test1 1402",
        "Satellite Number": 1402,
        "Semi-Major Axis(m)": 6980739.136638005,
        "Time(s)": 120
    },
    {
        "Altitude(m)": 625132.4974415587,
        "Argument of Periapsis(deg)": 0.0013544629687285324,
        "Eccentricity": 0.0,
        "Inclination(deg)": 60.0,
        "Latitude(deg)": -60.13445262986621,
        "Longitude(deg)": 124.24427033058454,
        "Mean Anomaly(deg)": -90.12042010899621,
        "RAAN(deg)": 314.99453936118334,
        "Satellite Name": "Test1 1402",
        "Satellite Number": 1402,
        "Semi-Major Axis(m)": 6980739.136638005,
        "Time(s)": 130
    },
    {
        "Altitude(m)": 625131.209652837,
        "Argument of Periapsis(deg)": 0.0014586524278614966,
        "Eccentricity": 0.0,
        "Inclination(deg)": 60.0,
        "Latitude(deg)": -60.13090209132842,
        "Longitude(deg)": 125.43927192936661,
        "Mean Anomaly(deg)": -89.50031396353435,
        "RAAN(deg)": 314.9941193120436,
        "Satellite Name": "Test1 1402",
        "Satellite Number": 1402,
        "Semi-Major Axis(m)": 6980739.136638005,
        "Time(s)": 140
    },
    {
        "Altitude(m)": 625125.9834816839,
        "Argument of Periapsis(deg)": 0.0015628418869944607,
        "Eccentricity": 0.0,
        "Inclination(deg)": 60.0,
        "Latitude(deg)": -60.1158191544689,
        "Longitude(deg)": 126.6335754672425,
        "Mean Anomaly(deg)": -88.88020781807256,
        "RAAN(deg)": 314.9936992629039,
        "Satellite Name": "Test1 1402",
        "Satellite Number": 1402,
        "Semi-Major Axis(m)": 6980739.136638005,
        "Time(s)": 150
    },
    {
        "Altitude(m)": 625116.8209659741,
        "Argument of Periapsis(deg)": 0.0016670313461274247,
        "Eccentricity": 0.0,
        "Inclination(deg)": 60.0,
        "Latitude(deg)": -60.089221249904284,
        "Longitude(deg)": 127.82632041719063,
        "Mean Anomaly(deg)": -88.2601016726107,
        "RAAN(deg)": 314.99327921376414,
        "Satellite Name": "Test1 1402",
        "Satellite Number": 1402,
        "Semi-Major Axis(m)": 6980739.136638005,
        "Time(s)": 160
    },
    {
        "Altitude(m)": 625103.7256943992,
        "Argument of Periapsis(deg)": 0.0017712208052603888,
        "Eccentricity": 0.0,
        "Inclination(deg)": 60.0,
        "Latitude(deg)": -60.051139030695104,
        "Longitude(deg)": 129.01665297522842,
        "Mean Anomaly(deg)": -87.63999552714884,
        "RAAN(deg)": 314.9928591646244,
        "Satellite Name": "Test1 1402",
        "Satellite Number": 1402,
        "Semi-Major Axis(m)": 6980739.136638005,
        "Time(s)": 170
    },
    {
        "Altitude(m)": 625086.7028049823,
        "Argument of Periapsis(deg)": 0.001875410264393353,
        "Eccentricity": 0.0,
        "Inclination(deg)": 60.0,
        "Latitude(deg)": -60.00161619652895,
        "Longitude(deg)": 130.20373046345492,
        "Mean Anomaly(deg)": -87.019889381687,
        "RAAN(deg)": 314.9924391154846,
        "Satellite Name": "Test1 1402",
        "Satellite Number": 1402,
        "Semi-Major Axis(m)": 6980739.136638005,
        "Time(s)": 180
    },
    {
        "Altitude(m)": 625065.7589829079,
        "Argument of Periapsis(deg)": 0.0019795997235263173,
        "Eccentricity": 0.0,
        "Inclination(deg)": 60.0,
        "Latitude(deg)": -59.94070924487443,
        "Longitude(deg)": 131.3867256063502,
        "Mean Anomaly(deg)": -86.3997832362252,
        "RAAN(deg)": 314.99201906634494,
        "Satellite Name": "Test1 1402",
        "Satellite Number": 1402,
        "Semi-Major Axis(m)": 6980739.136638005,
        "Time(s)": 190
    }
]